{
"type": "FeatureCollection",
"name": "ramsar_texolo_502ha",
"crs": { "type": "name", "properties": { "name": "urn:ogc:def:crs:OGC:1.3:CRS84" } },
"features": [
{ "type": "Feature", "properties": { "id": null, "fid": null, "cat": null, "tecnico_id": null, "nombre_productor": null, "nombre_finca": null, "producto": null, "estado": null, "municipio": null, "localidad": null, "uso_suelo": null, "superficie_m2": null, "superficie_ha": "502.74", "fecha_levantamiento": null, "fecha_ingreso": null, "fuente": null, "altitud_msnm": null, "alt__number": null, "alt__minimum": null, "alt__maximum": null, "alt__range": null, "alt__average": null, "alt__stddev": null, "alt__variance": null, "alt__coeff_var": null, "alt__sum": null, "alt__first_quartile": null, "alt__median": null, "alt__third_quartile": null, "alt__percentile_90": null, "SITE_ID": 902863, "SITE_PID": "902863", "SITE_TYPE": "PA", "NAME_ENG": "Cascadas de Texolo y su entorno", "NAME": "Cascadas de Texolo y su entorno", "DESIG": "Sitio Ramsar, Humedal de Importancia Internacional", "DESIG_ENG": "Wetland of International Importance (Ramsar Site)", "DESIG_TYPE": "International", "IUCN_CAT": "Not Reported", "INT_CRIT": "(ii);(iv)", "REALM": "Terrestrial", "REP_M_AREA": 0.0, "GIS_M_AREA": 0.0, "REP_AREA": 5.0, "GIS_AREA": 5.0274473588005097, "NO_TAKE": "Not Applicable", "NO_TK_AREA": 0.0, "STATUS": "Designated", "STATUS_YR": 2006, "GOV_TYPE": "Not Reported", "GOVSUBTYPE": "Not Applicable", "OWN_TYPE": "Not Reported", "OWNSUBTYPE": "Not Applicable", "MANG_AUTH": "Not Reported", "MANG_PLAN": "Not Reported", "VERIF": "State Verified", "METADATAID": 1856, "PRNT_ISO3": "MEX", "ISO3": "MEX", "SUPP_INFO": "Not Applicable", "CONS_OBJ": "Not Applicable", "INLND_WTRS": "Not Reported", "OECM_ASMT": "Not Applicable", "layer": "WDPA_WDOECM_Apr2026_Public_902863_shp-polygons", "path": "C:\\Users\\Desktop\\Desktop\\IMPULSO  MI REGION 2025-2030\\DCTOS ESTRATEGICOS IRD TOTAL\\monitoreo Mediambiental\\zonas protegidas\\WDPA_WDOECM_Apr2026_Public_902863_shp-polygons.shp" }, "geometry": { "type": "MultiPolygon", "coordinates": [ [ [ [ -97.019597239, 19.423195137999983 ], [ -97.016660535000028, 19.422268493 ], [ -97.015633433, 19.422428115 ], [ -97.012561251000022, 19.420974914 ], [ -97.009700108, 19.419419682000012 ], [ -97.005463234999979, 19.417139905 ], [ -96.998904588000016, 19.41515251300001 ], [ -96.996981100000028, 19.41249941 ], [ -96.995161863000021, 19.410049894 ], [ -96.994466021999983, 19.408793748999983 ], [ -96.990242271999989, 19.405237877 ], [ -96.978843299, 19.403930447 ], [ -96.971705787000019, 19.40310857999998 ], [ -96.960504760999981, 19.40164882900001 ], [ -96.962935292999987, 19.395550043000014 ], [ -96.973378507, 19.397256149999976 ], [ -96.981690749, 19.397956013999988 ], [ -96.990421059000028, 19.399368711000022 ], [ -96.995541420999984, 19.399391521999974 ], [ -96.998838503, 19.397302093 ], [ -97.004530412, 19.39419289 ], [ -97.01413765, 19.391413721 ], [ -97.015643711999985, 19.395180389000018 ], [ -97.005628268, 19.397477959000014 ], [ -97.001921604000017, 19.401081423 ], [ -96.998255207, 19.401878539999984 ], [ -96.997866639999984, 19.403868061000026 ], [ -96.997434559, 19.406581717999984 ], [ -97.00008993900002, 19.409927127 ], [ -97.00353060499998, 19.412676553999972 ], [ -97.010303594, 19.415595387999986 ], [ -97.012966147999975, 19.417179288 ], [ -97.016815373999975, 19.419399630999976 ], [ -97.020827140999984, 19.421186751999983 ], [ -97.023558297000022, 19.422412800000018 ], [ -97.02661688500001, 19.423317836000024 ], [ -97.023582788999988, 19.426831459000027 ], [ -97.021649, 19.424707904 ], [ -97.019597239, 19.423195137999983 ] ] ] ] } }
]
}
