{
  "type": "FeatureCollection",
  "features": [
    {
      "type": "Feature",
      "geometry": {
        "type": "MultiPolygon",
        "coordinates": [
          [
            [
              [
                -97.019597239,
                19.423195137999983
              ],
              [
                -97.01666053500003,
                19.422268493
              ],
              [
                -97.015633433,
                19.422428115
              ],
              [
                -97.01256125100002,
                19.420974914
              ],
              [
                -97.009700108,
                19.41941968200001
              ],
              [
                -97.00546323499998,
                19.417139905
              ],
              [
                -96.99890458800002,
                19.41515251300001
              ],
              [
                -96.99698110000003,
                19.41249941
              ],
              [
                -96.99516186300002,
                19.410049894
              ],
              [
                -96.99446602199998,
                19.408793748999983
              ],
              [
                -96.99024227199999,
                19.405237877
              ],
              [
                -96.978843299,
                19.403930447
              ],
              [
                -96.97170578700002,
                19.40310857999998
              ],
              [
                -96.96050476099998,
                19.40164882900001
              ],
              [
                -96.96293529299999,
                19.395550043000014
              ],
              [
                -96.973378507,
                19.397256149999976
              ],
              [
                -96.981690749,
                19.397956013999988
              ],
              [
                -96.99042105900003,
                19.399368711000022
              ],
              [
                -96.99554142099998,
                19.399391521999974
              ],
              [
                -96.998838503,
                19.397302093
              ],
              [
                -97.004530412,
                19.39419289
              ],
              [
                -97.01413765,
                19.391413721
              ],
              [
                -97.01564371199999,
                19.395180389000018
              ],
              [
                -97.005628268,
                19.397477959000014
              ],
              [
                -97.00192160400002,
                19.401081423
              ],
              [
                -96.998255207,
                19.401878539999984
              ],
              [
                -96.99786663999998,
                19.403868061000026
              ],
              [
                -96.997434559,
                19.406581717999984
              ],
              [
                -97.00008993900002,
                19.409927127
              ],
              [
                -97.00353060499998,
                19.412676553999972
              ],
              [
                -97.010303594,
                19.415595387999986
              ],
              [
                -97.01296614799998,
                19.417179288
              ],
              [
                -97.01681537399998,
                19.419399630999976
              ],
              [
                -97.02082714099998,
                19.421186751999983
              ],
              [
                -97.02355829700002,
                19.422412800000018
              ],
              [
                -97.02661688500001,
                19.423317836000024
              ],
              [
                -97.02358278899999,
                19.426831459000027
              ],
              [
                -97.021649,
                19.424707904
              ],
              [
                -97.019597239,
                19.423195137999983
              ]
            ]
          ]
        ]
      },
      "properties": {
        "municipio": "Sitio Completo"
      }
    }
  ]
}